[{"OBJECT_NAME":"SITRO-AIS 8 (ANOKHIN)","OBJECT_ID":"2023-091AD","EPOCH":"2026-03-09T23:44:40.058592","MEAN_MOTION":15.29359179,"ECCENTRICITY":0.0012509,"INCLINATION":97.5169,"RA_OF_ASC_NODE":133.2823,"ARG_OF_PERICENTER":92.0171,"MEAN_ANOMALY":268.2501,"EPHEMERIS_TYPE":0,"CLASSIFICATION_TYPE":"U","NORAD_CAT_ID":57193,"ELEMENT_SET_NO":999,"REV_AT_EPOCH":14927,"BSTAR":0.00064982524,"MEAN_MOTION_DOT":0.00018494,"MEAN_MOTION_DDOT":0},{"OBJECT_NAME":"STARLINK-32818","OBJECT_ID":"2025-034H","EPOCH":"2026-03-09T22:28:11.563680","MEAN_MOTION":15.30196256,"ECCENTRICITY":0.00011625,"INCLINATION":53.1577,"RA_OF_ASC_NODE":257.0476,"ARG_OF_PERICENTER":88.3908,"MEAN_ANOMALY":271.7226,"EPHEMERIS_TYPE":0,"CLASSIFICATION_TYPE":"U","NORAD_CAT_ID":63036,"ELEMENT_SET_NO":999,"REV_AT_EPOCH":5912,"BSTAR":0.0012754495,"MEAN_MOTION_DOT":0.00037603,"MEAN_MOTION_DDOT":0}]
